
# G05 (GNSS)
1 35752U 09043A   25333.86201846 -.00000064  00000+0  00000+0 0  9998
2 35752  56.0820  35.2913 0052164  82.1115  44.9526  2.00566374119367

# G07 (GNSS)
1 32711U 08012A   25333.71096457  .00000127  00000+0  00000+0 0  9998
2 32711  54.4755 157.8931 0201937 244.8068 113.1338  2.00564982129754

# G12 (GNSS)
1 29601U 06052A   25333.48528101  .00000034  00000+0  00000+0 0  9991
2 29601  54.9735 221.9245 0087428  87.3040 273.7701  2.00572538139405

# G15 (GNSS)
1 32260U 07047A   25333.29201024  .00000015  00000+0  00000+0 0  9991
2 32260  53.9457  88.3140 0164420  85.0855 276.7799  2.00565027132808

# G24 (GNSS)
1 38833U 12053A   25332.39261116  .00000117  00000+0  00000+0 0  9997
2 38833  53.5552 151.8264 0175372  63.7837 298.0470  2.00564842 95418

# G25 (GNSS)
1 36585U 10022A   25333.27717433  .00000042  00000+0  00000+0 0  9996
2 36585  54.3028 216.6170 0125526  64.9233 118.7699  2.00552436113588

# G27 (GNSS)
1 39166U 13023A   25333.25361417 -.00000034  00000+0  00000+0 0  9995
2 39166  54.6638 277.1167 0137069  48.4652 312.7048  2.00565107 91871

# G29 (GNSS)
1 32384U 07062A   25333.24960123 -.00000035  00000+0  00000+0 0  9995
2 32384  55.1942 282.1872 0032191 162.9775 296.9493  2.00576535131506
