{
  "type": "FeatureCollection",
  "features": [
    {
      "type": "Feature",
      "properties": {
        "OBJECT_NAME": "GPS BIIRM-3 (PRN 12)",
        "OBJECT_ID": "2006-052A",
        "EPOCH": "2025-11-29T11:38:48.279264",
        "MEAN_MOTION": 2.00572538,
        "ECCENTRICITY": 0.0087428,
        "INCLINATION": 54.9735,
        "RA_OF_ASC_NODE": 221.9245,
        "ARG_OF_PERICENTER": 87.304,
        "MEAN_ANOMALY": 273.7701,
        "EPHEMERIS_TYPE": 0,
        "CLASSIFICATION_TYPE": "U",
        "NORAD_CAT_ID": 29601,
        "ELEMENT_SET_NO": 999,
        "REV_AT_EPOCH": 13940,
        "BSTAR": 0,
        "MEAN_MOTION_DOT": 3.4e-07,
        "MEAN_MOTION_DDOT": 0,
        "norad_id": 29601,
        "name": "GPS BIIRM-3 (PRN 12)",
        "group": "gps-ops",
        "longitude_deg": NaN,
        "latitude_deg": NaN,
        "alt_km": NaN,
        "orbit_class": "HEO",
        "timestamp": "2025-11-30T04:58:49.599660+00:00"
      },
      "geometry": {
        "type": "Point",
        "coordinates": [
          NaN,
          NaN
        ]
      }
    },
    {
      "type": "Feature",
      "properties": {
        "OBJECT_NAME": "GPS BIIRM-4 (PRN 15)",
        "OBJECT_ID": "2007-047A",
        "EPOCH": "2025-11-29T07:00:29.684736",
        "MEAN_MOTION": 2.00565027,
        "ECCENTRICITY": 0.01644207,
        "INCLINATION": 53.9457,
        "RA_OF_ASC_NODE": 88.314,
        "ARG_OF_PERICENTER": 85.0855,
        "MEAN_ANOMALY": 276.7799,
        "EPHEMERIS_TYPE": 0,
        "CLASSIFICATION_TYPE": "U",
        "NORAD_CAT_ID": 32260,
        "ELEMENT_SET_NO": 999,
        "REV_AT_EPOCH": 13280,
        "BSTAR": 0,
        "MEAN_MOTION_DOT": 1.5e-07,
        "MEAN_MOTION_DDOT": 0,
        "norad_id": 32260,
        "name": "GPS BIIRM-4 (PRN 15)",
        "group": "gps-ops",
        "longitude_deg": NaN,
        "latitude_deg": NaN,
        "alt_km": NaN,
        "orbit_class": "HEO",
        "timestamp": "2025-11-30T04:58:49.599844+00:00"
      },
      "geometry": {
        "type": "Point",
        "coordinates": [
          NaN,
          NaN
        ]
      }
    },
    {
      "type": "Feature",
      "properties": {
        "OBJECT_NAME": "GPS BIIRM-5 (PRN 29)",
        "OBJECT_ID": "2007-062A",
        "EPOCH": "2025-11-29T05:59:25.546272",
        "MEAN_MOTION": 2.00576535,
        "ECCENTRICITY": 0.00321913,
        "INCLINATION": 55.1942,
        "RA_OF_ASC_NODE": 282.1872,
        "ARG_OF_PERICENTER": 162.9775,
        "MEAN_ANOMALY": 296.9493,
        "EPHEMERIS_TYPE": 0,
        "CLASSIFICATION_TYPE": "U",
        "NORAD_CAT_ID": 32384,
        "ELEMENT_SET_NO": 999,
        "REV_AT_EPOCH": 13150,
        "BSTAR": 0,
        "MEAN_MOTION_DOT": -3.5e-07,
        "MEAN_MOTION_DDOT": 0,
        "norad_id": 32384,
        "name": "GPS BIIRM-5 (PRN 29)",
        "group": "gps-ops",
        "longitude_deg": NaN,
        "latitude_deg": NaN,
        "alt_km": NaN,
        "orbit_class": "HEO",
        "timestamp": "2025-11-30T04:58:49.599908+00:00"
      },
      "geometry": {
        "type": "Point",
        "coordinates": [
          NaN,
          NaN
        ]
      }
    },
    {
      "type": "Feature",
      "properties": {
        "OBJECT_NAME": "GPS BIIRM-6 (PRN 07)",
        "OBJECT_ID": "2008-012A",
        "EPOCH": "2025-11-29T17:03:47.338848",
        "MEAN_MOTION": 2.00564982,
        "ECCENTRICITY": 0.0201937,
        "INCLINATION": 54.4755,
        "RA_OF_ASC_NODE": 157.8931,
        "ARG_OF_PERICENTER": 244.8068,
        "MEAN_ANOMALY": 113.1338,
        "EPHEMERIS_TYPE": 0,
        "CLASSIFICATION_TYPE": "U",
        "NORAD_CAT_ID": 32711,
        "ELEMENT_SET_NO": 999,
        "REV_AT_EPOCH": 12975,
        "BSTAR": 0,
        "MEAN_MOTION_DOT": 1.27e-06,
        "MEAN_MOTION_DDOT": 0,
        "norad_id": 32711,
        "name": "GPS BIIRM-6 (PRN 07)",
        "group": "gps-ops",
        "longitude_deg": NaN,
        "latitude_deg": NaN,
        "alt_km": NaN,
        "orbit_class": "HEO",
        "timestamp": "2025-11-30T04:58:49.599956+00:00"
      },
      "geometry": {
        "type": "Point",
        "coordinates": [
          NaN,
          NaN
        ]
      }
    },
    {
      "type": "Feature",
      "properties": {
        "OBJECT_NAME": "GPS BIIRM-8 (PRN 05)",
        "OBJECT_ID": "2009-043A",
        "EPOCH": "2025-11-29T20:41:18.394944",
        "MEAN_MOTION": 2.00566374,
        "ECCENTRICITY": 0.0052164,
        "INCLINATION": 56.082,
        "RA_OF_ASC_NODE": 35.2913,
        "ARG_OF_PERICENTER": 82.1115,
        "MEAN_ANOMALY": 44.9526,
        "EPHEMERIS_TYPE": 0,
        "CLASSIFICATION_TYPE": "U",
        "NORAD_CAT_ID": 35752,
        "ELEMENT_SET_NO": 999,
        "REV_AT_EPOCH": 11936,
        "BSTAR": 0,
        "MEAN_MOTION_DOT": -6.4e-07,
        "MEAN_MOTION_DDOT": 0,
        "norad_id": 35752,
        "name": "GPS BIIRM-8 (PRN 05)",
        "group": "gps-ops",
        "longitude_deg": NaN,
        "latitude_deg": NaN,
        "alt_km": NaN,
        "orbit_class": "HEO",
        "timestamp": "2025-11-30T04:58:49.600367+00:00"
      },
      "geometry": {
        "type": "Point",
        "coordinates": [
          NaN,
          NaN
        ]
      }
    },
    {
      "type": "Feature",
      "properties": {
        "OBJECT_NAME": "GPS BIIF-1  (PRN 25)",
        "OBJECT_ID": "2010-022A",
        "EPOCH": "2025-11-29T06:39:07.862112",
        "MEAN_MOTION": 2.00552436,
        "ECCENTRICITY": 0.0125526,
        "INCLINATION": 54.3028,
        "RA_OF_ASC_NODE": 216.617,
        "ARG_OF_PERICENTER": 64.9233,
        "MEAN_ANOMALY": 118.7699,
        "EPHEMERIS_TYPE": 0,
        "CLASSIFICATION_TYPE": "U",
        "NORAD_CAT_ID": 36585,
        "ELEMENT_SET_NO": 999,
        "REV_AT_EPOCH": 11358,
        "BSTAR": 0,
        "MEAN_MOTION_DOT": 4.2e-07,
        "MEAN_MOTION_DDOT": 0,
        "norad_id": 36585,
        "name": "GPS BIIF-1  (PRN 25)",
        "group": "gps-ops",
        "longitude_deg": NaN,
        "latitude_deg": NaN,
        "alt_km": NaN,
        "orbit_class": "HEO",
        "timestamp": "2025-11-30T04:58:49.600639+00:00"
      },
      "geometry": {
        "type": "Point",
        "coordinates": [
          NaN,
          NaN
        ]
      }
    },
    {
      "type": "Feature",
      "properties": {
        "OBJECT_NAME": "GPS BIIF-3  (PRN 24)",
        "OBJECT_ID": "2012-053A",
        "EPOCH": "2025-11-28T09:25:21.604224",
        "MEAN_MOTION": 2.00564842,
        "ECCENTRICITY": 0.01753726,
        "INCLINATION": 53.5552,
        "RA_OF_ASC_NODE": 151.8264,
        "ARG_OF_PERICENTER": 63.7837,
        "MEAN_ANOMALY": 298.047,
        "EPHEMERIS_TYPE": 0,
        "CLASSIFICATION_TYPE": "U",
        "NORAD_CAT_ID": 38833,
        "ELEMENT_SET_NO": 999,
        "REV_AT_EPOCH": 9541,
        "BSTAR": 0,
        "MEAN_MOTION_DOT": 1.17e-06,
        "MEAN_MOTION_DDOT": 0,
        "norad_id": 38833,
        "name": "GPS BIIF-3  (PRN 24)",
        "group": "gps-ops",
        "longitude_deg": NaN,
        "latitude_deg": NaN,
        "alt_km": NaN,
        "orbit_class": "HEO",
        "timestamp": "2025-11-30T04:58:49.601668+00:00"
      },
      "geometry": {
        "type": "Point",
        "coordinates": [
          NaN,
          NaN
        ]
      }
    },
    {
      "type": "Feature",
      "properties": {
        "OBJECT_NAME": "GPS BIIF-4  (PRN 27)",
        "OBJECT_ID": "2013-023A",
        "EPOCH": "2025-11-29T06:05:12.264288",
        "MEAN_MOTION": 2.00565107,
        "ECCENTRICITY": 0.0137069,
        "INCLINATION": 54.6638,
        "RA_OF_ASC_NODE": 277.1167,
        "ARG_OF_PERICENTER": 48.4652,
        "MEAN_ANOMALY": 312.7048,
        "EPHEMERIS_TYPE": 0,
        "CLASSIFICATION_TYPE": "U",
        "NORAD_CAT_ID": 39166,
        "ELEMENT_SET_NO": 999,
        "REV_AT_EPOCH": 9187,
        "BSTAR": 0,
        "MEAN_MOTION_DOT": -3.4e-07,
        "MEAN_MOTION_DDOT": 0,
        "norad_id": 39166,
        "name": "GPS BIIF-4  (PRN 27)",
        "group": "gps-ops",
        "longitude_deg": NaN,
        "latitude_deg": NaN,
        "alt_km": NaN,
        "orbit_class": "HEO",
        "timestamp": "2025-11-30T04:58:49.602007+00:00"
      },
      "geometry": {
        "type": "Point",
        "coordinates": [
          NaN,
          NaN
        ]
      }
    }
  ]
}